OBJECT_NAME,OBJECT_ID,EPOCH,MEAN_MOTION,ECCENTRICITY,INCLINATION,RA_OF_ASC_NODE,ARG_OF_PERICENTER,MEAN_ANOMALY,EPHEMERIS_TYPE,CLASSIFICATION_TYPE,NORAD_CAT_ID,ELEMENT_SET_NO,REV_AT_EPOCH,BSTAR,MEAN_MOTION_DOT,MEAN_MOTION_DDOT
ES'HAIL 2,2018-090A,2026-07-16T03:10:42.041856,1.00271422,.0002244,0.0162,52.8723,106.1262,208.4198,0,U,43700,999,2796,0,.133E-5,0
GEO-KOMPSAT-2A,2018-100A,2026-07-16T01:33:38.763072,1.00268332,.0001933,0.0352,176.3215,286.3135,342.9231,0,U,43823,999,2791,0,-.355E-5,0
GSAT-11,2018-100B,2026-07-16T03:24:25.725888,1.00271150,.0007695,0.0457,250.9337,206.9612,321.1909,0,U,43824,999,2776,0,-.87E-6,0
GSAT-7A,2018-105A,2026-07-16T03:21:18.524736,1.00271387,.0001695,0.0871,91.3134,20.0173,295.7145,0,U,43864,999,2773,0,.16E-6,0
COSMOS 2533,2018-107A,2026-07-16T05:06:01.773792,1.00274547,.0000937,0.0393,113.7511,128.8217,197.9794,0,U,43867,999,2773,0,-.5E-6,0
TJS-3,2018-110A,2026-07-15T18:51:57.914208,1.00271702,.000255,2.6165,80.1459,88.8325,195.8619,0,U,43874,999,2770,0,-.228E-5,0
ZHONGXING-2D,2019-001A,2026-07-16T05:36:38.959200,1.00269356,.0000372,0.0189,257.2756,45.3221,205.6288,0,U,43920,999,5437,0,0,0
HELLAS-SAT 4 & SGS-1,2019-007A,2026-07-14T06:45:29.330208,1.00271532,.00057278,0.0672,125.5173,21.8726,285.1324,0,U,44034,999,2763,0,.146E-5,0
GSAT-31,2019-007B,2026-07-16T03:17:03.933312,1.00271324,.0000795,0.0172,97.7333,131.3253,162.0447,0,U,44035,999,2725,0,.115E-5,0
NUSANTARA SATU,2019-009A,2026-07-13T12:36:13.139712,1.00270313,.00046786,0.0316,124.8301,6.3551,135.2754,0,U,44048,999,2703,0,-.239E-5,0
ZHONGXING-6C,2019-012A,2026-07-16T00:15:18.311904,1.00270506,.0015064,0.0476,59.3324,354.3133,14.4461,0,U,44067,999,2702,0,-.346E-5,0
WGS 10 (USA 291),2019-014A,2026-07-16T03:20:33.596736,1.00270413,.0000193,0.0155,57.9903,244.3442,102.0692,0,U,44071,999,2690,0,.36E-6,0
TIANLIAN 2-01,2019-017A,2026-07-16T03:46:38.667936,1.00270889,.0001497,0.6128,83.0533,79.4370,265.1767,0,U,44076,999,2693,0,-.117E-5,0
ARABSAT-6A,2019-021A,2026-07-16T03:12:04.411296,1.00273589,.0001931,0.0451,10.5431,252.4952,109.4434,0,U,44186,999,2644,0,.143E-5,0
BEIDOU-3 IGSO-1,2019-023A,2026-07-15T09:14:05.307360,1.00283124,.00258575,58.7353,37.3589,224.1182,289.4342,0,U,44204,999,749,0,-.206E-5,0
BEIDOU-2 G8,2019-027A,2026-07-16T05:27:14.738688,1.00271373,.0009686,1.7295,74.4878,282.0094,163.9009,0,U,44231,999,2637,0,-.259E-5,0
YAMAL 601,2019-031A,2026-07-16T05:00:02.348064,1.00272378,.0002361,0.0197,81.3763,33.6478,303.0227,0,U,44307,999,2621,0,.109E-5,0
AT&T T-16,2019-034A,2026-07-14T19:46:46.069248,1.00268430,.00006162,0.0157,70.7114,248.2150,169.5701,0,U,44333,999,2591,0,-.123E-5,0
EUTELSAT 7C,2019-034B,2026-07-16T03:05:20.055840,1.00270341,.0003191,0.0766,181.0086,279.0569,247.2431,0,U,44334,999,712,0,.37E-6,0
BEIDOU-3 IGSO-2,2019-035A,2026-07-15T19:03:58.102272,1.00257569,.00394612,55.2502,158.6113,216.6180,322.8830,0,U,44337,999,2595,0,-.139E-5,0
COSMOS 2539,2019-048A,2026-07-14T23:05:19.317696,1.00271598,.0000812,0.0358,102.1610,356.5248,192.4498,0,U,44457,999,2550,0,.72E-6,0
EDRS-C,2019-049A,2026-07-14T14:05:22.714080,1.00271140,.0000893,0.0172,104.9935,24.4612,156.8304,0,U,44475,999,2548,0,-.27E-5,0
INTELSAT 39 (IS-39),2019-049B,2026-07-16T03:21:03.549024,1.00269286,.0000929,0.0247,59.2038,281.5049,65.4850,0,U,44476,999,2541,0,0,0
AMOS-17,2019-050A,2026-07-16T01:45:02.732256,1.00273943,.0001483,0.0223,338.6426,149.2345,209.2949,0,U,44479,999,2547,0,.99E-6,0
AEHF-5 (USA 292),2019-051A,2026-07-16T02:32:21.831072,1.00273541,.0064953,1.4303,338.4893,357.5222,89.0864,0,U,44481,999,2555,0,-.267E-5,0
EUTELSAT 5 WEST B,2019-067A,2026-07-16T03:01:57.878976,1.00272132,.0003058,0.0833,316.4784,158.7515,219.2154,0,U,44624,999,2472,0,-.53E-6,0
MEV-1,2019-067B,2026-06-16T22:18:40.152960,1.00269616,.00027946,0.8740,268.9828,179.8034,307.2103,0,U,44625,999,6174,0,-.149E-5,0
TJS-4,2019-070A,2026-07-16T03:27:10.463904,1.00273872,.0000403,0.1081,260.5781,43.8808,124.8588,0,U,44637,999,2482,0,-.181E-5,0
TIBA-1,2019-080A,2026-07-16T03:13:26.779008,1.00271395,.0001927,0.0534,18.5106,108.2474,251.0415,0,U,44800,999,2434,0,.145E-5,0
INMARSAT GX5,2019-080B,2026-07-16T01:45:38.730816,1.00273095,.0002303,0.0350,2.5889,124.3396,204.4239,0,U,44801,999,707,0,.64E-6,0
JCSAT-18 (KACIFIC 1),2019-091A,2026-07-15T20:55:34.008960,1.00269158,.0000497,0.0496,235.3853,18.9538,143.2389,0,U,44868,999,2429,0,-.212E-5,0
ELEKTRO-L 3,2019-095A,2026-07-16T03:46:38.668800,1.00271012,.0001118,0.3293,82.1275,21.3938,323.1155,0,U,44903,999,2399,0,-.107E-5,0
