ES'HAIL 2               
1 43700U 18090A   26197.13243104  .00000133  00000+0  00000+0 0  9990
2 43700   0.0162  52.8723 0002244 106.1262 208.4198  1.00271422 27967
GEO-KOMPSAT-2A          
1 43823U 18100A   26197.06503198 -.00000355  00000+0  00000+0 0  9999
2 43823   0.0352 176.3215 0001933 286.3135 342.9231  1.00268332 27919
GSAT-11                 
1 43824U 18100B   26197.14196442 -.00000087  00000+0  00000+0 0  9991
2 43824   0.0457 250.9337 0007695 206.9612 321.1909  1.00271150 27765
GSAT-7A                 
1 43864U 18105A   26197.13979774  .00000016  00000+0  00000+0 0  9997
2 43864   0.0871  91.3134 0001695  20.0173 295.7145  1.00271387 27739
COSMOS 2533             
1 43867U 18107A   26197.21252053 -.00000050  00000+0  00000+0 0  9994
2 43867   0.0393 113.7511 0000937 128.8217 197.9794  1.00274547 27737
TJS-3                   
1 43874U 18110A   26196.78608697 -.00000228  00000+0  00000+0 0  9993
2 43874   2.6165  80.1459 0002550  88.8325 195.8619  1.00271702 27706
ZHONGXING-2D            
1 43920U 19001A   26197.23378425  .00000000  00000+0  00000+0 0  9996
2 43920   0.0189 257.2756 0000372  45.3221 205.6288  1.00269356 54373
HELLAS-SAT 4 & SGS-1    
1 44034U 19007A   26195.28158947  .00000146  00000+0  00000+0 0  9998
2 44034   0.0672 125.5173 0005727  21.8726 285.1324  1.00271532 27637
GSAT-31                 
1 44035U 19007B   26197.13685108  .00000115  00000+0  00000+0 0  9995
2 44035   0.0172  97.7333 0000795 131.3253 162.0447  1.00271324 27259
NUSANTARA SATU          
1 44048U 19009A   26194.52515208 -.00000239  00000+0  00000+0 0  9992
2 44048   0.0316 124.8301 0004678   6.3551 135.2754  1.00270313 27032
ZHONGXING-6C            
1 44067U 19012A   26197.01062861 -.00000346  00000+0  00000+0 0  9995
2 44067   0.0476  59.3324 0015064 354.3133  14.4461  1.00270506 27026
WGS 10 (USA 291)        
1 44071U 19014A   26197.13927774  .00000036  00000+0  00000+0 0  9993
2 44071   0.0155  57.9903 0000193 244.3442 102.0692  1.00270413 26903
TIANLIAN 2-01           
1 44076U 19017A   26197.15739199 -.00000117  00000+0  00000+0 0  9996
2 44076   0.6128  83.0533 0001497  79.4370 265.1767  1.00270889 26932
ARABSAT-6A              
1 44186U 19021A   26197.13338439  .00000143  00000+0  00000+0 0  9991
2 44186   0.0451  10.5431 0001931 252.4952 109.4434  1.00273589 26448
BEIDOU-3 IGSO-1         
1 44204U 19023A   26196.38478365 -.00000206  00000+0  00000+0 0  9994
2 44204  58.7353  37.3589 0025857 224.1182 289.4342  1.00283124  7492
BEIDOU-2 G8             
1 44231U 19027A   26197.22725392 -.00000259  00000+0  00000+0 0  9995
2 44231   1.7295  74.4878 0009686 282.0094 163.9009  1.00271373 26372
YAMAL 601               
1 44307U 19031A   26197.20836051  .00000109  00000+0  00000+0 0  9990
2 44307   0.0197  81.3763 0002361  33.6478 303.0227  1.00272378 26216
AT&T T-16               
1 44333U 19034A   26195.82414432 -.00000123  00000+0  00000+0 0  9990
2 44333   0.0157  70.7114 0000616 248.2150 169.5701  1.00268430 25917
EUTELSAT 7C             
1 44334U 19034B   26197.12870435  .00000037  00000+0  00000+0 0  9998
2 44334   0.0766 181.0086 0003191 279.0569 247.2431  1.00270341  7126
BEIDOU-3 IGSO-2         
1 44337U 19035A   26196.79442248 -.00000139  00000+0  00000+0 0  9995
2 44337  55.2502 158.6113 0039461 216.6180 322.8830  1.00257569 25956
COSMOS 2539             
1 44457U 19048A   26195.96202914  .00000072  00000+0  00000+0 0  9999
2 44457   0.0358 102.1610 0000812 356.5248 192.4498  1.00271598 25509
EDRS-C                  
1 44475U 19049A   26195.58706845 -.00000270  00000+0  00000+0 0  9991
2 44475   0.0172 104.9935 0000893  24.4612 156.8304  1.00271140 25488
INTELSAT 39 (IS-39)     
1 44476U 19049B   26197.13962441  .00000000  00000+0  00000+0 0  9991
2 44476   0.0247  59.2038 0000929 281.5049  65.4850  1.00269286 25410
AMOS-17                 
1 44479U 19050A   26197.07294829  .00000099  00000+0  00000+0 0  9995
2 44479   0.0223 338.6426 0001483 149.2345 209.2949  1.00273943 25475
AEHF-5 (USA 292)        
1 44481U 19051A   26197.10580823 -.00000267  00000+0  00000+0 0  9993
2 44481   1.4303 338.4893 0064953 357.5222  89.0864  1.00273541 25550
EUTELSAT 5 WEST B       
1 44624U 19067A   26197.12636434 -.00000053  00000+0  00000+0 0  9994
2 44624   0.0833 316.4784 0003058 158.7515 219.2154  1.00272132 24724
MEV-1                   
1 44625U 19067B   26167.92963140 -.00000149  00000+0  00000+0 0  9993
2 44625   0.8740 268.9828 0002794 179.8034 307.2103  1.00269616 61744
TJS-4                   
1 44637U 19070A   26197.14387111 -.00000181  00000+0  00000+0 0  9991
2 44637   0.1081 260.5781 0000403  43.8808 124.8588  1.00273872 24825
TIBA-1                  
1 44800U 19080A   26197.13433772  .00000145  00000+0  00000+0 0  9997
2 44800   0.0534  18.5106 0001927 108.2474 251.0415  1.00271395 24345
INMARSAT GX5            
1 44801U 19080B   26197.07336494  .00000064  00000+0  00000+0 0  9994
2 44801   0.0350   2.5889 0002303 124.3396 204.4239  1.00273095  7070
JCSAT-18 (KACIFIC 1)    
1 44868U 19091A   26196.87192140 -.00000212  00000+0  00000+0 0  9990
2 44868   0.0496 235.3853 0000497  18.9538 143.2389  1.00269158 24293
ELEKTRO-L 3             
1 44903U 19095A   26197.15739200 -.00000107  00000+0  00000+0 0  9993
2 44903   0.3293  82.1275 0001118  21.3938 323.1155  1.00271012 23998
